{"type": "FeatureCollection", "features": [ {"type": "Feature", "properties": {"norad_id": 30960, "name": "FENGYUN 1C DEB", "group": "fengyun-1c-debris", "lat": 44.10387559549227, "lon": 105.1299584162958, "alt_km": 653.1162035845036, "timestamp": "2025-12-22T23:36:20.993183+00:00", "meta": {"OBJECT_NAME": "FENGYUN 1C DEB", "OBJECT_ID": "1999-025BBA", "EPOCH": "2025-12-21T13:01:30.334080", "MEAN_MOTION": 14.67052237, "ECCENTRICITY": 0.0196049, "INCLINATION": 99.0012, "RA_OF_ASC_NODE": 112.3854, "ARG_OF_PERICENTER": 134.8105, "MEAN_ANOMALY": 226.9225, "EPHEMERIS_TYPE": 0, "CLASSIFICATION_TYPE": "U", "NORAD_CAT_ID": 30960, "ELEMENT_SET_NO": 999, "REV_AT_EPOCH": 98827, "BSTAR": 0.0011394, "MEAN_MOTION_DOT": 8.477e-05, "MEAN_MOTION_DDOT": 0}, "tle": {"line1": "1 30960U 99025BBA 25355.54271220  .00008477  00000+0  11394-2 0  9991", "line2": "2 30960  99.0012 112.3854 0196049 134.8105 226.9225 14.67052237988275"}}, "geometry": {"type": "Point", "coordinates": [105.1299584162958, 44.10387559549227]}}, {"type": "Feature", "properties": {"norad_id": 30967, "name": "FENGYUN 1C DEB", "group": "fengyun-1c-debris", "lat": -80.22943131762302, "lon": 7.372702611913066, "alt_km": 682.0461519860928, "timestamp": "2025-12-22T23:36:20.993193+00:00", "meta": {"OBJECT_NAME": "FENGYUN 1C DEB", "OBJECT_ID": "1999-025BBH", "EPOCH": "2025-12-22T14:06:46.583424", "MEAN_MOTION": 14.57201105, "ECCENTRICITY": 0.0094883, "INCLINATION": 98.7655, "RA_OF_ASC_NODE": 303.3185, "ARG_OF_PERICENTER": 209.1974, "MEAN_ANOMALY": 150.39, "EPHEMERIS_TYPE": 0, "CLASSIFICATION_TYPE": "U", "NORAD_CAT_ID": 30967, "ELEMENT_SET_NO": 999, "REV_AT_EPOCH": 99157, "BSTAR": 0.00061481123, "MEAN_MOTION_DOT": 2.897e-05, "MEAN_MOTION_DDOT": 0}, "tle": {"line1": "1 30967U 99025BBH 25356.58803916  .00002897  00000+0  61481-3 0  9999", "line2": "2 30967  98.7655 303.3185 0094883 209.1974 150.3900 14.57201105991579"}}, "geometry": {"type": "Point", "coordinates": [7.372702611913066, -80.22943131762302]}}, {"type": "Feature", "properties": {"norad_id": 30971, "name": "FENGYUN 1C DEB", "group": "fengyun-1c-debris", "lat": -62.54527714920263, "lon": 60.372808367974265, "alt_km": 745.2421074177928, "timestamp": "2025-12-22T23:36:20.993203+00:00", "meta": {"OBJECT_NAME": "FENGYUN 1C DEB", "OBJECT_ID": "1999-025BBM", "EPOCH": "2025-12-19T21:39:07.398144", "MEAN_MOTION": 14.71761036, "ECCENTRICITY": 0.0163996, "INCLINATION": 99.2089, "RA_OF_ASC_NODE": 38.6926, "ARG_OF_PERICENTER": 169.0815, "MEAN_ANOMALY": 8.709, "EPHEMERIS_TYPE": 0, "CLASSIFICATION_TYPE": "U", "NORAD_CAT_ID": 30971, "ELEMENT_SET_NO": 999, "REV_AT_EPOCH": 99822, "BSTAR": 0.00038778, "MEAN_MOTION_DOT": 2.917e-05, "MEAN_MOTION_DDOT": 0}, "tle": {"line1": "1 30971U 99025BBM 25353.90216896  .00002917  00000+0  38778-3 0  9998", "line2": "2 30971  99.2089  38.6926 0163996 169.0815   8.7090 14.71761036998227"}}, "geometry": {"type": "Point", "coordinates": [60.372808367974265, -62.54527714920263]}}, {"type": "Feature", "properties": {"norad_id": 30979, "name": "FENGYUN 1C DEB", "group": "fengyun-1c-debris", "lat": -70.0234940232296, "lon": 52.92194153216321, "alt_km": 542.5166298153954, "timestamp": "2025-12-22T23:36:20.993214+00:00", "meta": {"OBJECT_NAME": "FENGYUN 1C DEB", "OBJECT_ID": "1999-025BBV", "EPOCH": "2025-12-22T11:54:42.971616", "MEAN_MOTION": 14.78931095, "ECCENTRICITY": 0.01902529, "INCLINATION": 97.83, "RA_OF_ASC_NODE": 254.6919, "ARG_OF_PERICENTER": 209.2808, "MEAN_ANOMALY": 328.1531, "EPHEMERIS_TYPE": 0, "CLASSIFICATION_TYPE": "U", "NORAD_CAT_ID": 30979, "ELEMENT_SET_NO": 999, "REV_AT_EPOCH": 99289, "BSTAR": 0.00096201713, "MEAN_MOTION_DOT": 9.586e-05, "MEAN_MOTION_DDOT": 0}, "tle": {"line1": "1 30979U 99025BBV 25356.49633069  .00009586  00000+0  96202-3 0  9993", "line2": "2 30979  97.8300 254.6919 0190252 209.2808 328.1531 14.78931095992898"}}, "geometry": {"type": "Point", "coordinates": [52.92194153216321, -70.0234940232296]}}, {"type": "Feature", "properties": {"norad_id": 30982, "name": "FENGYUN 1C DEB", "group": "fengyun-1c-debris", "lat": 22.139457146409413, "lon": 170.3572897226135, "alt_km": 790.9482812157712, "timestamp": "2025-12-22T23:36:20.993223+00:00", "meta": {"OBJECT_NAME": "FENGYUN 1C DEB", "OBJECT_ID": "1999-025BBY", "EPOCH": "2025-12-21T11:11:41.104608", "MEAN_MOTION": 14.50977404, "ECCENTRICITY": 0.01800088, "INCLINATION": 98.2171, "RA_OF_ASC_NODE": 345.5041, "ARG_OF_PERICENTER": 285.5929, "MEAN_ANOMALY": 233.5591, "EPHEMERIS_TYPE": 0, "CLASSIFICATION_TYPE": "U", "NORAD_CAT_ID": 30982, "ELEMENT_SET_NO": 999, "REV_AT_EPOCH": 71180, "BSTAR": 0.00025430817, "MEAN_MOTION_DOT": 1.184e-05, "MEAN_MOTION_DDOT": 0}, "tle": {"line1": "1 30982U 99025BBY 25355.46644797  .00001184  00000+0  25431-3 0  9995", "line2": "2 30982  98.2171 345.5041 0180008 285.5929 233.5591 14.50977404711807"}}, "geometry": {"type": "Point", "coordinates": [170.3572897226135, 22.139457146409413]}}, {"type": "Feature", "properties": {"norad_id": 30984, "name": "FENGYUN 1C DEB", "group": "fengyun-1c-debris", "lat": 18.895831995617506, "lon": 30.28274473007406, "alt_km": 657.3446359635564, "timestamp": "2025-12-22T23:36:20.993234+00:00", "meta": {"OBJECT_NAME": "FENGYUN 1C DEB", "OBJECT_ID": "1999-025BCA", "EPOCH": "2025-12-19T01:09:07.900704", "MEAN_MOTION": 14.50470271, "ECCENTRICITY": 0.01269732, "INCLINATION": 98.2627, "RA_OF_ASC_NODE": 29.2707, "ARG_OF_PERICENTER": 348.6992, "MEAN_ANOMALY": 11.1357, "EPHEMERIS_TYPE": 0, "CLASSIFICATION_TYPE": "U", "NORAD_CAT_ID": 30984, "ELEMENT_SET_NO": 999, "REV_AT_EPOCH": 95255, "BSTAR": 0.00057491681, "MEAN_MOTION_DOT": 2.445e-05, "MEAN_MOTION_DDOT": 0}, "tle": {"line1": "1 30984U 99025BCA 25353.04800811  .00002445  00000+0  57492-3 0  9993", "line2": "2 30984  98.2627  29.2707 0126973 348.6992  11.1357 14.50470271952551"}}, "geometry": {"type": "Point", "coordinates": [30.28274473007406, 18.895831995617506]}}, {"type": "Feature", "properties": {"norad_id": 30988, "name": "FENGYUN 1C DEB", "group": "fengyun-1c-debris", "lat": -81.30762912919212, "lon": 25.320726226605483, "alt_km": 427.9612315443019, "timestamp": "2025-12-22T23:36:20.993244+00:00", "meta": {"OBJECT_NAME": "FENGYUN 1C DEB", "OBJECT_ID": "1999-025BCE", "EPOCH": "2025-12-20T20:05:36.735936", "MEAN_MOTION": 15.27111223, "ECCENTRICITY": 0.01098086, "INCLINATION": 98.5432, "RA_OF_ASC_NODE": 303.3604, "ARG_OF_PERICENTER": 311.9603, "MEAN_ANOMALY": 47.2314, "EPHEMERIS_TYPE": 0, "CLASSIFICATION_TYPE": "U", "NORAD_CAT_ID": 30988, "ELEMENT_SET_NO": 999, "REV_AT_EPOCH": 99687, "BSTAR": 0.0012912634, "MEAN_MOTION_DOT": 0.00041106, "MEAN_MOTION_DDOT": 0}, "tle": {"line1": "1 30988U 99025BCE 25354.83723074  .00041106  00000+0  12913-2 0  9995", "line2": "2 30988  98.5432 303.3604 0109808 311.9603  47.2314 15.27111223996874"}}, "geometry": {"type": "Point", "coordinates": [25.320726226605483, -81.30762912919212]}}, {"type": "Feature", "properties": {"norad_id": 30989, "name": "FENGYUN 1C DEB", "group": "fengyun-1c-debris", "lat": -34.6286737773489, "lon": -115.64007675923868, "alt_km": 904.4253608049366, "timestamp": "2025-12-22T23:36:20.993254+00:00", "meta": {"OBJECT_NAME": "FENGYUN 1C DEB", "OBJECT_ID": "1999-025BCF", "EPOCH": "2025-12-22T10:42:41.755104", "MEAN_MOTION": 14.13983782, "ECCENTRICITY": 0.00900595, "INCLINATION": 99.0521, "RA_OF_ASC_NODE": 70.1366, "ARG_OF_PERICENTER": 72.4556, "MEAN_ANOMALY": 288.6432, "EPHEMERIS_TYPE": 0, "CLASSIFICATION_TYPE": "U", "NORAD_CAT_ID": 30989, "ELEMENT_SET_NO": 999, "REV_AT_EPOCH": 96125, "BSTAR": 0.0013369436, "MEAN_MOTION_DOT": 2.595e-05, "MEAN_MOTION_DDOT": 0}, "tle": {"line1": "1 30989U 99025BCF 25356.44631661  .00002595  00000+0  13369-2 0  9990", "line2": "2 30989  99.0521  70.1366 0090059  72.4556 288.6432 14.13983782961254"}}, "geometry": {"type": "Point", "coordinates": [-115.64007675923868, -34.6286737773489]}}, {"type": "Feature", "properties": {"norad_id": 30993, "name": "FENGYUN 1C DEB", "group": "fengyun-1c-debris", "lat": -42.81235073222233, "lon": -98.61334558714626, "alt_km": 785.3983634358692, "timestamp": "2025-12-22T23:36:20.993265+00:00", "meta": {"OBJECT_NAME": "FENGYUN 1C DEB", "OBJECT_ID": "1999-025BCK", "EPOCH": "2025-12-22T05:56:51.400896", "MEAN_MOTION": 14.35510543, "ECCENTRICITY": 0.00162299, "INCLINATION": 98.8467, "RA_OF_ASC_NODE": 88.9282, "ARG_OF_PERICENTER": 343.6451, "MEAN_ANOMALY": 39.7534, "EPHEMERIS_TYPE": 0, "CLASSIFICATION_TYPE": "U", "NORAD_CAT_ID": 30993, "ELEMENT_SET_NO": 999, "REV_AT_EPOCH": 97056, "BSTAR": 0.0017726623, "MEAN_MOTION_DOT": 5.064e-05, "MEAN_MOTION_DDOT": 0}, "tle": {"line1": "1 30993U 99025BCK 25356.24781714  .00005064  00000+0  17727-2 0  9994", "line2": "2 30993  98.8467  88.9282 0016229 343.6451  39.7534 14.35510543970560"}}, "geometry": {"type": "Point", "coordinates": [-98.61334558714626, -42.81235073222233]}}, {"type": "Feature", "properties": {"norad_id": 30994, "name": "FENGYUN 1C DEB", "group": "fengyun-1c-debris", "lat": 69.79193420633628, "lon": -150.30133790295142, "alt_km": 836.0385484674034, "timestamp": "2025-12-22T23:36:20.993275+00:00", "meta": {"OBJECT_NAME": "FENGYUN 1C DEB", "OBJECT_ID": "1999-025BCL", "EPOCH": "2025-12-21T16:28:40.173312", "MEAN_MOTION": 14.11775807, "ECCENTRICITY": 0.00182736, "INCLINATION": 98.6996, "RA_OF_ASC_NODE": 3.861, "ARG_OF_PERICENTER": 149.663, "MEAN_ANOMALY": 210.5603, "EPHEMERIS_TYPE": 0, "CLASSIFICATION_TYPE": "U", "NORAD_CAT_ID": 30994, "ELEMENT_SET_NO": 999, "REV_AT_EPOCH": 96711, "BSTAR": 0.00013382716, "MEAN_MOTION_DOT": 2.02e-06, "MEAN_MOTION_DDOT": 0}, "tle": {"line1": "1 30994U 99025BCL 25355.68657608  .00000202  00000+0  13383-3 0  9990", "line2": "2 30994  98.6996   3.8610 0018273 149.6630 210.5603 14.11775807967114"}}, "geometry": {"type": "Point", "coordinates": [-150.30133790295142, 69.79193420633628]}}]}